NORAD_CAT_ID,OBJECT_NAME,OBJECT_TYPE,EPOCH,MEAN_MOTION,ECCENTRICITY,INCLINATION,RA_OF_ASC_NODE,ARG_OF_PERICENTER,MEAN_ANOMALY,BSTAR,MEAN_MOTION_DOT,MEAN_MOTION_DDOT,TLE_LINE0,TLE_LINE1,TLE_LINE2,SEMIMAJOR_AXIS,PERIOD,APOGEE,PERIGEE,DECAYED
54172.0,STARLINK-5117,PAYLOAD,2024-04-04 06:20:04,15.08846749,0.000141,53.216,286.3829,86.9828,273.1325,0.00019412,2.803e-05,0.0,0 STARLINK-5117,1 54172U 22141R   24095.26394404  .00002803  00000-0  19412-3 0  9994,2 54172  53.2160 286.3829 0001410  86.9828 273.1325 15.08846749 79510,6917.86,95.437,540.7,538.749,0.0
54172.0,STARLINK-5117,PAYLOAD,2024-04-04 19:03:10,15.08842339,0.0001386,53.2163,284.0041,87.2747,272.8403,0.00018089,2.592e-05,0.0,0 STARLINK-5117,1 54172U 22141R   24095.79386613  .00002592  00000-0  18089-3 0  9999,2 54172  53.2163 284.0041 0001386  87.2747 272.8403 15.08842339 79592,6917.873,95.437,540.697,538.779,0.0
54172.0,STARLINK-5117,PAYLOAD,2024-04-05 12:32:24,15.08844168,0.0001396,53.216,280.7324,88.5062,271.609,0.00015811,2.23e-05,0.0,0 STARLINK-5117,1 54172U 22141R   24096.52250369  .00002230  00000-0  15811-3 0  9998,2 54172  53.2160 280.7324 0001396  88.5062 271.6090 15.08844168 79705,6917.868,95.437,540.698,538.767,0.0
54172.0,STARLINK-5117,PAYLOAD,2024-04-05 20:29:20,15.08841553,0.0001292,53.217,279.2443,91.6121,268.502,4.2891e-05,3.95e-06,0.0,0 STARLINK-5117,1 54172U 22141R   24096.85370437  .00000395  00000-0  42891-4 0  9992,2 54172  53.2170 279.2443 0001292  91.6121 268.5020 15.08841553 79755,6917.876,95.437,540.634,538.847,0.0
54172.0,STARLINK-5117,PAYLOAD,2024-04-05 22:04:43,15.08841608,0.0001294,53.2171,278.9469,91.4201,268.6939,3.9286e-05,3.37e-06,0.0,0 STARLINK-5117,1 54172U 22141R   24096.91994414  .00000337  00000-0  39286-4 0  9996,2 54172  53.2171 278.9469 0001294  91.4201 268.6939 15.08841608 79761,6917.875,95.437,540.636,538.845,0.0
54172.0,STARLINK-5117,PAYLOAD,2024-04-06 12:23:11,15.08837245,0.0001262,53.2169,276.2699,90.3379,269.7758,4.8655e-05,4.87e-06,0.0,0 STARLINK-5117,1 54172U 22141R   24097.51610644  .00000487  00000-0  48655-4 0  9999,2 54172  53.2169 276.2699 0001262  90.3379 269.7758 15.08837245 79856,6917.889,95.438,540.627,538.881,0.0
54172.0,STARLINK-5117,PAYLOAD,2024-04-06 18:44:44,15.08835527,0.0001264,53.2169,275.0802,90.3677,269.746,2.8165e-05,1.6e-06,0.0,0 STARLINK-5117,1 54172U 22141R   24097.78106838  .00000160  00000-0  28165-4 0  9995,2 54172  53.2169 275.0802 0001264  90.3677 269.7460 15.08835527 79897,6917.894,95.438,540.633,538.885,0.0
54172.0,STARLINK-5117,PAYLOAD,2024-04-07 12:13:59,15.08827402,0.000134,53.2177,271.8094,105.5029,254.6111,4.4319e-05,4.17e-06,0.0,0 STARLINK-5117,1 54172U 22141R   24098.50971381  .00000417  00000-0  44319-4 0  9993,2 54172  53.2177 271.8094 0001340 105.5029 254.6111 15.08827402 80002,6917.919,95.438,540.711,538.857,0.0
54172.0,STARLINK-5117,PAYLOAD,2024-04-07 18:35:31,15.08835127,0.0001533,53.2167,270.6203,94.4648,265.6519,5.8403e-05,6.42e-06,0.0,0 STARLINK-5117,1 54172U 22141R   24098.77467042  .00000642  00000-0  58403-4 0  9995,2 54172  53.2167 270.6203 0001533  94.4648 265.6519 15.08835127 80048,6917.895,95.438,540.821,538.7,0.0
54172.0,STARLINK-5117,PAYLOAD,2024-04-08 04:07:50,15.08837317,0.0001547,53.2169,268.8359,92.252,267.865,5.5263e-05,5.92e-06,0.0,0 STARLINK-5117,1 54172U 22141R   24099.17211037  .00000592  00000-0  55263-4 0  9996,2 54172  53.2169 268.8359 0001547  92.2520 267.8650 15.08837317 80101,6917.889,95.438,540.824,538.683,0.0
54172.0,STARLINK-5117,PAYLOAD,2024-04-08 20:01:42,15.08835412,0.0001706,53.2227,265.8653,95.1091,265.0096,6.9367e-05,8.16e-06,0.0,0 STARLINK-5117,1 54172U 22141R   24099.83451459  .00000816  00000-0  69367-4 0  9992,2 54172  53.2227 265.8653 0001706  95.1091 265.0096 15.08835412 80201,6917.894,95.438,540.94,538.579,0.0
54172.0,STARLINK-5117,PAYLOAD,2024-04-09 10:20:10,15.08840213,0.0002086,53.2197,263.1879,88.057,272.0661,0.00011167,1.489e-05,0.0,0 STARLINK-5117,1 54172U 22141R   24100.43067324  .00001489  00000-0  11167-3 0  9996,2 54172  53.2197 263.1879 0002086  88.0570 272.0661 15.08840213 80293,6917.88,95.438,541.188,538.302,0.0
54172.0,STARLINK-5117,PAYLOAD,2024-04-10 05:24:48,15.08822796,0.0001505,53.2152,259.619,86.0007,274.1157,0.0003548,5.361e-05,0.0,0 STARLINK-5117,1 54172U 22141R   24101.22556029  .00005361  00000-0  35480-3 0  9996,2 54172  53.2152 259.6190 0001505  86.0007 274.1157 15.08822796 80411,6917.933,95.439,540.839,538.757,0.0
54172.0,STARLINK-5117,PAYLOAD,2024-04-10 13:21:43,15.08836089,0.000109,53.2153,258.1305,85.331,274.7806,7.5708e-05,9.17e-06,0.0,0 STARLINK-5117,1 54172U 22141R   24101.55675407  .00000917  00000-0  75708-4 0  9994,2 54172  53.2153 258.1305 0001090  85.3310 274.7806 15.08836089 80464,6917.892,95.438,540.511,539.003,0.0
54172.0,STARLINK-5117,PAYLOAD,2024-04-10 19:43:15,15.0884832,0.0001312,53.2168,256.9428,85.3439,274.7703,9.2608e-05,1.187e-05,0.0,0 STARLINK-5117,1 54172U 22141R   24101.82170757  .00001187  00000-0  92608-4 0  9990,2 54172  53.2168 256.9428 0001312  85.3439 274.7703 15.08848320 80503,6917.855,95.437,540.628,538.812,0.0
54172.0,STARLINK-5117,PAYLOAD,2024-04-10 21:18:38,15.08849609,0.0001449,53.2167,256.6455,81.4232,278.6924,0.00011504,1.544e-05,0.0,0 STARLINK-5117,1 54172U 22141R   24101.88794647  .00001544  00000-0  11504-3 0  9998,2 54172  53.2167 256.6455 0001449  81.4232 278.6924 15.08849609 80518,6917.851,95.437,540.718,538.714,0.0
54172.0,STARLINK-5117,PAYLOAD,2024-04-11 13:12:30,15.08837289,0.0001619,53.2166,253.671,91.3627,268.7551,1.8212e-05,2e-08,0.0,0 STARLINK-5117,1 54172U 22141R   24102.55035616  .00000002  00000-0  18212-4 0  9999,2 54172  53.2166 253.6710 0001619  91.3627 268.7551 15.08837289 80613,6917.889,95.438,540.874,538.634,0.0
54172.0,STARLINK-5117,PAYLOAD,2024-04-11 14:47:53,15.08837683,0.00015,53.2166,253.3737,90.3572,269.7592,4.8008e-05,4.76e-06,0.0,0 STARLINK-5117,1 54172U 22141R   24102.61659518  .00000476  00000-0  48008-4 0  9990,2 54172  53.2166 253.3737 0001500  90.3572 269.7592 15.08837683 80621,6917.887,95.438,540.79,538.715,0.0
54172.0,STARLINK-5117,PAYLOAD,2024-04-11 19:34:02,15.08845874,0.0001187,53.2167,252.4816,86.2638,273.849,7.3108e-05,8.76e-06,0.0,0 STARLINK-5117,1 54172U 22141R   24102.81530927  .00000876  00000-0  73108-4 0  9997,2 54172  53.2167 252.4816 0001187  86.2638 273.8490 15.08845874 80655,6917.862,95.437,540.549,538.906,0.0
54172.0,STARLINK-5117,PAYLOAD,2024-04-11 21:09:25,15.0884832,0.0001194,53.2167,252.1842,86.8175,273.2953,9.5806e-05,1.238e-05,0.0,0 STARLINK-5117,1 54172U 22141R   24102.88154716  .00001238  00000-0  95806-4 0  9994,2 54172  53.2167 252.1842 0001194  86.8175 273.2953 15.08848320 80669,6917.855,95.437,540.546,538.894,0.0
54172.0,STARLINK-5117,PAYLOAD,2024-04-12 13:03:17,15.0883432,0.0001242,53.2168,249.2109,96.2761,263.8373,5.5978e-05,6.03e-06,0.0,0 STARLINK-5117,1 54172U 22141R   24103.54395765  .00000603  00000-0  55978-4 0  9990,2 54172  53.2168 249.2109 0001242  96.2761 263.8373 15.08834320 80760,6917.898,95.438,540.622,538.904,0.0
54172.0,STARLINK-5117,PAYLOAD,2024-04-12 14:38:40,15.08836412,0.0001249,53.2168,248.9135,92.0467,268.0668,6.5619e-05,7.57e-06,0.0,0 STARLINK-5117,1 54172U 22141R   24103.61019607  .00000757  00000-0  65619-4 0  9999,2 54172  53.2168 248.9135 0001249  92.0467 268.0668 15.08836412 80778,6917.891,95.438,540.62,538.892,0.0
54172.0,STARLINK-5117,PAYLOAD,2024-04-12 19:24:49,15.08845106,0.0001231,53.2168,248.0212,89.4314,270.6819,7.6928e-05,9.37e-06,0.0,0 STARLINK-5117,1 54172U 22141R   24103.80890962  .00000937  00000-0  76928-4 0  9996,2 54172  53.2168 248.0212 0001231  89.4314 270.6819 15.08845106 80808,6917.865,95.437,540.581,538.878,0.0
54172.0,STARLINK-5117,PAYLOAD,2024-04-12 21:00:12,15.08848012,0.0001232,53.2168,247.7238,90.1457,269.9677,9.964e-05,1.299e-05,0.0,0 STARLINK-5117,1 54172U 22141R   24103.87514700  .00001299  00000-0  99640-4 0  9994,2 54172  53.2168 247.7238 0001232  90.1457 269.9677 15.08848012 80813,6917.856,95.437,540.573,538.869,0.0
54172.0,STARLINK-5117,PAYLOAD,2024-04-13 12:54:04,15.08835682,0.0001328,53.216,244.7496,95.6273,264.4871,0.00012093,1.637e-05,0.0,0 STARLINK-5117,1 54172U 22141R   24104.53755644  .00001637  00000-0  12093-3 0  9994,2 54172  53.2160 244.7496 0001328  95.6273 264.4871 15.08835682 80916,6917.894,95.438,540.677,538.84,0.0
54172.0,STARLINK-5117,PAYLOAD,2024-04-13 14:29:27,15.08838843,0.000132,53.2161,244.4525,86.6833,273.431,0.00016345,2.314e-05,0.0,0 STARLINK-5117,1 54172U 22141R   24104.60379545  .00002314  00000-0  16345-3 0  9991,2 54172  53.2161 244.4525 0001320  86.6833 273.4310 15.08838843 80922,6917.884,95.438,540.662,538.836,0.0
54172.0,STARLINK-5117,PAYLOAD,2024-04-13 20:50:59,15.08851338,0.0001302,53.2161,243.2629,85.5576,274.5565,0.00027464,4.087e-05,0.0,0 STARLINK-5117,1 54172U 22141R   24104.86874869  .00004087  00000-0  27464-3 0  9991,2 54172  53.2161 243.2629 0001302  85.5576 274.5565 15.08851338 80968,6917.846,95.437,540.611,538.81,0.0
54172.0,STARLINK-5117,PAYLOAD,2024-04-14 03:12:32,15.08853603,0.000129,53.2162,242.0733,81.1871,278.9267,0.00025799,3.822e-05,0.0,0 STARLINK-5117,1 54172U 22141R   24105.13370732  .00003822  00000-0  25799-3 0  9997,2 54172  53.2162 242.0733 0001290  81.1871 278.9267 15.08853603 81008,6917.839,95.437,540.596,538.811,0.0
54172.0,STARLINK-5117,PAYLOAD,2024-04-14 12:44:52,15.08833467,0.0001304,53.2161,240.2896,94.5947,265.5194,9.7943e-05,1.271e-05,0.0,0 STARLINK-5117,1 54172U 22141R   24105.53115840  .00001271  00000-0  97943-4 0  9995,2 54172  53.2161 240.2896 0001304  94.5947 265.5194 15.08833467 81068,6917.9,95.438,540.667,538.863,0.0
54172.0,STARLINK-5117,PAYLOAD,2024-04-14 20:41:47,15.08863567,0.0001312,53.2159,238.8023,84.2641,275.8501,0.0012425,0.00019554,0.0,0 STARLINK-5117,1 54172U 22141R   24105.86235092  .00019554  00000-0  12425-2 0  9996,2 54172  53.2159 238.8023 0001312  84.2641 275.8501 15.08863567 81112,6917.808,95.436,540.581,538.766,0.0
